{
    "links": {
        "self": "http://www.neowsapp.com/rest/v1/neo/3772391?api_key=iIulBulltgU6a56xZRHN4H3l9WmuAYTsLGpBGhQ2"
    },
    "id": "3772391",
    "neo_reference_id": "3772391",
    "name": "(2017 FV64)",
    "designation": "2017 FV64",
    "nasa_jpl_url": "http://ssd.jpl.nasa.gov/sbdb.cgi?sstr=3772391",
    "absolute_magnitude_h": 25.0,
    "estimated_diameter": {
        "kilometers": {
            "estimated_diameter_min": 0.02658,
            "estimated_diameter_max": 0.0594346868
        },
        "meters": {
            "estimated_diameter_min": 26.58,
            "estimated_diameter_max": 59.4346868419
        },
        "miles": {
            "estimated_diameter_min": 0.0165160412,
            "estimated_diameter_max": 0.0369309908
        },
        "feet": {
            "estimated_diameter_min": 87.2047272,
            "estimated_diameter_max": 194.9956979785
        }
    },
    "is_potentially_hazardous_asteroid": false,
    "close_approach_data": [
        {
            "close_approach_date": "2017-03-22",
            "close_approach_date_full": "2017-Mar-22 22:06",
            "epoch_date_close_approach": 1490220360000,
            "relative_velocity": {
                "kilometers_per_second": "5.4531803591",
                "kilometers_per_hour": "19631.4492927365",
                "miles_per_hour": "12198.2191452562"
            },
            "miss_distance": {
                "astronomical": "0.1323398895",
                "lunar": "51.4802170155",
                "kilometers": "19797765.585235365",
                "miles": "12301761.094423437"
            },
            "orbiting_body": "Earth"
        }
    ],
    "orbital_data": {
        "orbit_id": "3",
        "orbit_determination_date": "2017-04-06 08:19:13",
        "first_observation_date": "2017-03-21",
        "last_observation_date": "2017-04-02",
        "data_arc_in_days": 12,
        "observations_used": 17,
        "orbit_uncertainty": "7",
        "minimum_orbit_intersection": ".132234",
        "jupiter_tisserand_invariant": "5.104",
        "epoch_osculation": "2459000.5",
        "eccentricity": ".1163887327043597",
        "semi_major_axis": "1.255480844688016",
        "inclination": "10.42007422845698",
        "ascending_node_longitude": "191.420097081737",
        "orbital_period": "513.8230269439567",
        "perihelion_distance": "1.109357020240179",
        "perihelion_argument": "320.3507974303091",
        "aphelion_distance": "1.401604669135853",
        "perihelion_time": "2458828.922352914302",
        "mean_anomaly": "120.2125045236413",
        "mean_motion": ".7006303359760979",
        "equinox": "J2000",
        "orbit_class": {
            "orbit_class_type": "AMO",
            "orbit_class_description": "Near-Earth asteroid orbits similar to that of 1221 Amor",
            "orbit_class_range": "1.017 AU < q (perihelion) < 1.3 AU"
        }
    },
    "is_sentry_object": false
}